OBJECT_NAME,OBJECT_ID,EPOCH,MEAN_MOTION,ECCENTRICITY,INCLINATION,RA_OF_ASC_NODE,ARG_OF_PERICENTER,MEAN_ANOMALY,EPHEMERIS_TYPE,CLASSIFICATION_TYPE,NORAD_CAT_ID,ELEMENT_SET_NO,REV_AT_EPOCH,BSTAR,MEAN_MOTION_DOT,MEAN_MOTION_DDOT
ONEWEB-0054,2020-008AD,2026-07-06T22:27:39.892032,13.10377029,.0001908,87.8827,32.3334,84.2379,275.8966,0,U,45158,999,31061,.16941E-2,.604E-5,0
ONEWEB-0056,2020-008AE,2026-07-06T23:35:48.262272,13.10372573,.0002094,87.8825,32.3171,85.4526,274.6840,0,U,45159,999,31077,-.17654E-2,-.604E-5,0
ONEWEB-0057,2020-008AF,2026-07-07T00:00:39.790656,13.10374978,.0001781,87.8825,32.3254,68.7860,291.3458,0,U,45160,999,31094,.20463E-3,.84E-6,0
ONEWEB-0058,2020-008AG,2026-07-06T23:41:38.145984,13.10375855,.000176,87.8817,32.3330,93.6737,266.4591,0,U,45161,999,31101,-.16474E-2,-.562E-5,0
ONEWEB-0059,2020-008AH,2026-07-06T23:36:13.912704,13.10370957,.0001585,87.8817,32.3328,80.9200,279.2107,0,U,45162,999,31091,-.18141E-2,-.621E-5,0
ONEWEB-0062,2020-008AJ,2026-07-07T00:10:03.505728,13.10376509,.0001958,87.8827,32.3169,94.9519,265.1832,0,U,45163,999,31078,.11094E-2,.4E-5,0
ONEWEB-0065,2020-008AK,2026-07-06T23:08:57.793920,13.10371463,.0001947,87.8820,32.3331,78.2709,281.8637,0,U,45164,999,31047,-.31508E-3,-.97E-6,0
ONEWEB-0066,2020-020A,2026-07-06T23:36:46.381824,13.11418280,.0001701,87.8877,17.1284,91.9735,268.1588,0,U,45424,999,30527,.17986E-2,.65E-5,0
ONEWEB-0067,2020-020B,2026-07-07T11:30:19.339200,13.11425377,.0001796,87.8900,16.9559,83.7463,276.3869,0,U,45425,999,30539,-.14206E-2,-.491E-5,0
ONEWEB-0080,2020-020C,2026-07-07T11:29:52.056672,13.11416445,.0001955,87.8892,17.0286,98.2303,261.9046,0,U,45426,999,30536,-.14533E-2,-.502E-5,0
ONEWEB-0090,2020-020D,2026-07-07T12:11:23.404992,13.11417327,.0001889,87.8889,17.0270,90.1891,269.9454,0,U,45427,999,30533,.12784E-2,.466E-5,0
ONEWEB-0061,2020-020E,2026-07-07T11:07:29.443872,13.11414990,.0001828,87.8887,17.0200,91.5557,268.5780,0,U,45428,999,30528,-.86534E-3,-.294E-5,0
ONEWEB-0081,2020-020F,2026-07-06T23:41:38.706720,13.11414523,.00017,87.8882,17.1245,88.3777,271.7546,0,U,45429,999,30533,.97221E-3,.357E-5,0
ONEWEB-0069,2020-020G,2026-07-06T23:44:17.916864,13.11417266,.0001627,87.8884,17.1274,88.5687,271.5627,0,U,45430,999,30526,.81502E-3,.302E-5,0
ONEWEB-0031,2020-020H,2026-07-07T11:34:34.551840,13.11417565,.0001931,87.8878,17.0329,93.9615,266.1734,0,U,45431,999,30531,-.12585E-2,-.433E-5,0
ONEWEB-0027,2020-020J,2026-07-07T11:02:33.688032,13.17678472,.0002241,87.9135,1.8308,95.2482,264.8905,0,U,45432,999,30902,.48871E-2,.1912E-4,0
ONEWEB-0064,2020-020K,2026-07-07T11:32:05.845344,13.11416889,.0001978,87.8882,17.0260,91.9631,268.1723,0,U,45433,999,30534,-.18457E-2,-.641E-5,0
ONEWEB-0018,2020-020L,2026-07-06T23:29:13.981056,13.11415998,.000152,87.8883,17.1253,96.8364,263.2937,0,U,45434,999,30522,.15735E-2,.57E-5,0
ONEWEB-0083,2020-020M,2026-07-07T12:04:03.776736,13.11418077,.0001851,87.8888,17.0156,90.4479,269.6861,0,U,45435,999,30533,.11455E-2,.419E-5,0
ONEWEB-0095,2020-020N,2026-07-07T11:51:50.415264,13.11418161,.0002454,87.8889,17.0260,80.1827,279.9578,0,U,45436,999,30533,.12329E-3,.56E-6,0
ONEWEB-0092,2020-020P,2026-07-06T21:56:49.788960,13.11391685,.0001757,87.8886,17.1327,90.8957,269.2372,0,U,45437,999,30537,.9058E-2,.3223E-4,0
ONEWEB-0085,2020-020Q,2026-07-07T12:03:39.851712,13.11417941,.000186,87.8881,17.0212,88.6502,271.4839,0,U,45438,999,30533,.94696E-3,.348E-5,0
ONEWEB-0096,2020-020R,2026-07-07T12:06:17.815104,13.11417006,.0001959,87.8887,17.0180,87.1031,273.0321,0,U,45439,999,30532,.10733E-2,.393E-5,0
ONEWEB-0037,2020-020S,2026-07-07T10:54:16.792128,13.11582453,.000185,87.8894,16.9988,84.4094,275.7245,0,U,45440,999,30535,-.7646E-1,-.27072E-3,0
ONEWEB-0042,2020-020T,2026-07-06T21:12:30.918816,13.11418730,.0001796,87.8889,17.1379,86.3535,273.7799,0,U,45441,999,30524,.55874E-3,.211E-5,0
ONEWEB-0098,2020-020U,2026-07-07T11:45:31.311072,13.11417586,.0001844,87.8887,17.0262,91.1784,268.9555,0,U,45442,999,30530,-.11206E-2,-.384E-5,0
ONEWEB-0055,2020-020V,2026-07-06T22:25:44.916096,13.11415470,.0001894,87.8886,17.1356,91.3510,268.7835,0,U,45443,999,30520,-.14912E-2,-.516E-5,0
ONEWEB-0093,2020-020W,2026-07-06T23:52:07.176864,13.10890005,.0001588,87.8885,17.1186,83.5181,276.6128,0,U,45444,999,30527,.3147E-3,.123E-5,0
ONEWEB-0029,2020-020X,2026-07-07T11:24:58.796064,13.11415851,.0001603,87.8880,17.0286,88.5510,271.5802,0,U,45445,999,30531,-.15345E-2,-.531E-5,0
ONEWEB-0068,2020-020Y,2026-07-07T10:45:32.387328,13.11414670,.0001651,87.8886,17.0303,88.6695,271.4622,0,U,45446,999,30525,.95498E-3,.351E-5,0
ONEWEB-0046,2020-020Z,2026-07-06T23:34:19.273728,13.11415849,.0001766,87.8878,17.1276,81.0985,279.0343,0,U,45447,999,30520,.13837E-2,.503E-5,0
