ONEWEB-0054             
1 45158U 20008AD  26187.93587838  .00000604  00000+0  16941-2 0  9990
2 45158  87.8827  32.3334 0001908  84.2379 275.8966 13.10377029310611
ONEWEB-0056             
1 45159U 20008AE  26187.98319748 -.00000604  00000+0 -17654-2 0  9993
2 45159  87.8825  32.3171 0002094  85.4526 274.6840 13.10372573310777
ONEWEB-0057             
1 45160U 20008AF  26188.00046054  .00000084  00000+0  20463-3 0  9999
2 45160  87.8825  32.3254 0001781  68.7860 291.3458 13.10374978310949
ONEWEB-0058             
1 45161U 20008AG  26187.98724706 -.00000562  00000+0 -16474-2 0  9992
2 45161  87.8817  32.3330 0001760  93.6737 266.4591 13.10375855311018
ONEWEB-0059             
1 45162U 20008AH  26187.98349436 -.00000621  00000+0 -18141-2 0  9995
2 45162  87.8817  32.3328 0001585  80.9200 279.2107 13.10370957310916
ONEWEB-0062             
1 45163U 20008AJ  26188.00698502  .00000400  00000+0  11094-2 0  9994
2 45163  87.8827  32.3169 0001958  94.9519 265.1832 13.10376509310786
ONEWEB-0065             
1 45164U 20008AK  26187.96455780 -.00000097  00000+0 -31508-3 0  9995
2 45164  87.8820  32.3331 0001947  78.2709 281.8637 13.10371463310473
ONEWEB-0066             
1 45424U 20020A   26187.98387016  .00000650  00000+0  17986-2 0  9992
2 45424  87.8877  17.1284 0001701  91.9735 268.1588 13.11418280305276
ONEWEB-0067             
1 45425U 20020B   26188.47939050 -.00000491  00000+0 -14206-2 0  9996
2 45425  87.8900  16.9559 0001796  83.7463 276.3869 13.11425377305398
ONEWEB-0080             
1 45426U 20020C   26188.47907473 -.00000502  00000+0 -14533-2 0  9997
2 45426  87.8892  17.0286 0001955  98.2303 261.9046 13.11416445305369
ONEWEB-0090             
1 45427U 20020D   26188.50790978  .00000466  00000+0  12784-2 0  9995
2 45427  87.8889  17.0270 0001889  90.1891 269.9454 13.11417327305336
ONEWEB-0061             
1 45428U 20020E   26188.46353523 -.00000294  00000+0 -86534-3 0  9998
2 45428  87.8887  17.0200 0001828  91.5557 268.5780 13.11414990305289
ONEWEB-0081             
1 45429U 20020F   26187.98725355  .00000357  00000+0  97221-3 0  9994
2 45429  87.8882  17.1245 0001700  88.3777 271.7546 13.11414523305336
ONEWEB-0069             
1 45430U 20020G   26187.98909626  .00000302  00000+0  81502-3 0  9996
2 45430  87.8884  17.1274 0001627  88.5687 271.5627 13.11417266305269
ONEWEB-0031             
1 45431U 20020H   26188.48234435 -.00000433  00000+0 -12585-2 0  9993
2 45431  87.8878  17.0329 0001931  93.9615 266.1734 13.11417565305319
ONEWEB-0027             
1 45432U 20020J   26188.46011213  .00001912  00000+0  48871-2 0  9997
2 45432  87.9135   1.8308 0002241  95.2482 264.8905 13.17678472309026
ONEWEB-0064             
1 45433U 20020K   26188.48062321 -.00000641  00000+0 -18457-2 0  9993
2 45433  87.8882  17.0260 0001978  91.9631 268.1723 13.11416889305348
ONEWEB-0018             
1 45434U 20020L   26187.97863404  .00000570  00000+0  15735-2 0  9993
2 45434  87.8883  17.1253 0001520  96.8364 263.2937 13.11415998305223
ONEWEB-0083             
1 45435U 20020M   26188.50282149  .00000419  00000+0  11455-2 0  9992
2 45435  87.8888  17.0156 0001851  90.4479 269.6861 13.11418077305333
ONEWEB-0095             
1 45436U 20020N   26188.49433351  .00000056  00000+0  12329-3 0  9993
2 45436  87.8889  17.0260 0002454  80.1827 279.9578 13.11418161305337
ONEWEB-0092             
1 45437U 20020P   26187.91446515  .00003223  00000+0  90580-2 0  9999
2 45437  87.8886  17.1327 0001757  90.8957 269.2372 13.11391685305376
ONEWEB-0085             
1 45438U 20020Q   26188.50254458  .00000348  00000+0  94696-3 0  9997
2 45438  87.8881  17.0212 0001860  88.6502 271.4839 13.11417941305333
ONEWEB-0096             
1 45439U 20020R   26188.50437286  .00000393  00000+0  10733-2 0  9999
2 45439  87.8887  17.0180 0001959  87.1031 273.0321 13.11417006305329
ONEWEB-0037             
1 45440U 20020S   26188.45436102 -.00027072  00000+0 -76460-1 0  9994
2 45440  87.8894  16.9988 0001850  84.4094 275.7245 13.11582453305358
ONEWEB-0042             
1 45441U 20020T   26187.88369119  .00000211  00000+0  55874-3 0  9996
2 45441  87.8889  17.1379 0001796  86.3535 273.7799 13.11418730305246
ONEWEB-0098             
1 45442U 20020U   26188.48994573 -.00000384  00000+0 -11206-2 0  9995
2 45442  87.8887  17.0262 0001844  91.1784 268.9555 13.11417586305300
ONEWEB-0055             
1 45443U 20020V   26187.93454764 -.00000516  00000+0 -14912-2 0  9992
2 45443  87.8886  17.1356 0001894  91.3510 268.7835 13.11415470305207
ONEWEB-0093             
1 45444U 20020W   26187.99452751  .00000123  00000+0  31470-3 0  9994
2 45444  87.8885  17.1186 0001588  83.5181 276.6128 13.10890005305275
ONEWEB-0029             
1 45445U 20020X   26188.47568051 -.00000531  00000+0 -15345-2 0  9997
2 45445  87.8880  17.0286 0001603  88.5510 271.5802 13.11415851305311
ONEWEB-0068             
1 45446U 20020Y   26188.44829152  .00000351  00000+0  95498-3 0  9993
2 45446  87.8886  17.0303 0001651  88.6695 271.4622 13.11414670305256
ONEWEB-0046             
1 45447U 20020Z   26187.98216752  .00000503  00000+0  13837-2 0  9993
2 45447  87.8878  17.1276 0001766  81.0985 279.0343 13.11415849305202
